company_name,street,city,state,zip_code
Edwin Watts Golf,32257 US Hwy 19 N, Palm Harbor,FL,34684
Edwin Watts Golf,8484 NW 36th St Ste. 200, Doral,FL,33166
Edwin Watts Golf,15999 Biscayne Blvd, North Miami Beach,FL,33160
Edwin Watts Golf,189 State Farm Pkwy, Birmingham,AL,35209
Edwin Watts Golf,2436 Veterans Memorial Blvd, Kenner,LA,70062
Edwin Watts Golf,7501 Turkey Lake Rd, Orlando,FL,32819
Edwin Watts Golf,3503 Wedgewood Ln, The Villages,FL,32162
Edwin Watts Golf,20655 Lyons Rd, Boca Raton,FL,33434
Edwin Watts Golf,5395 Westheimer Rd, Houston,TX,77056
Edwin Watts Golf,11120 S Cleveland Ave, Fort Myers,FL,33907
Edwin Watts Golf,2515 McGavock Pk, Nashville,TN,37214
Edwin Watts Golf,5805 Camp Bowie Blvd, Fort Worth,TX,76107
Edwin Watts Golf,435 S Federal Hwy, Pompano Beach,FL,33062
Edwin Watts Golf,36074 Emerald Coast Pkwy, Destin,FL,32541
Edwin Watts Golf,7203 Kingery Hwy, Willowbrook,IL,60527
Edwin Watts Golf,4082 3rd St S, Jacksonville Beach,FL,32250
Edwin Watts Golf,6824 W 119th St, Overland Park,KS,66209
Edwin Watts Golf,3150 Piedmont Rd NE, Atlanta,GA,30305
Edwin Watts Golf,5895 Poplar Ave, Memphis,TN,38119
Edwin Watts Golf,9365 Philips Hwy Ste. 110, Jacksonville,FL,32256
Edwin Watts Golf,1050 NE Interstate 410 Loop, San Antonio,TX,78209
Edwin Watts Golf,7700 Abercorn St, Savannah,GA,31406
Edwin Watts Golf,3024 Richmond Rd, Lexington,KY,40509
Edwin Watts Golf,2423 Capital Cir NE, Tallahassee,FL,32308
Edwin Watts Golf,1 Buckingham Plantation Dr, Bluffton,SC,29910
Edwin Watts Golf,4526 S Padre Island Dr, Corpus Christi,TX,78411
Edwin Watts Golf,5717 N Davis Hwy, Pensacola,FL,32503
Edwin Watts Golf,946 Orleans Rd, Charleston,SC,29407
Edwin Watts Golf,266 Bobby Jones Expy #21, Martinez,GA,30907
Edwin Watts Golf,2602 S Shackleford Rd G, Little Rock,AR,72205
Edwin Watts Golf,11364 Parkside Dr, Knoxville,TN,37934
Edwin Watts Golf,168 West Interstate 65 Service Rd S, Mobile,AL,36608
Edwin Watts Golf,820 E County Line Rd, Ridgeland,MS,39157
Edwin Watts Golf,410 W SW Loop 323, Tyler,TX,75701
Edwin Watts Golf,5235 S Sherwood Forest Blvd, Baton Rouge,LA,70816
Edwin Watts Golf,1820 E 70th St Ste. 300, Shreveport,LA,71105
Edwin Watts Golf,230 Retreat Village, St Simons Island,GA,31522
Edwin Watts Golf,7100 Fairway Dr #62, Palm Beach Gardens,FL,33418
Edwin Watts Golf,1421 Village Way, Santa Ana,CA,92705
Edwin Watts Golf,7628 Memorial Pkwy SW, Huntsville,AL,35802
